CTC2_L_00546001-01
1 30969U 24843ZI  26037.47798611  .00000000  00000+0  00000-0 0  9998
2 30969  98.4000   0.0000 0000000   0.0000   0.0000 14.42576027    19
CTC2_L_00546001-02
1 30970U 22777WM  26037.47798611  .00000000  00000+0  00000-0 0  9994
2 30970  98.4000   0.0000 0000000   0.0000  45.0000 14.42576027    10
CTC2_L_00546001-03
1 30971U 22025NL  26037.47798611  .00000000  00000+0  00000-0 0  9991
2 30971  98.4000   0.0000 0000000   0.0000  90.0000 14.42576027    11
CTC2_L_00546001-04
1 30972U 26564JE  26037.47798611  .00000000  00000+0  00000-0 0  9994
2 30972  98.4000   0.0000 0000000   0.0000 135.0000 14.42576027    12
CTC2_L_00546001-05
1 30973U 22261RN  26037.47798611  .00000000  00000+0  00000-0 0  9995
2 30973  98.4000   0.0000 0000000   0.0000 180.0000 14.42576027    13
CTC2_L_00546001-06
1 30974U 24872HE  26037.47798611  .00000000  00000+0  00000-0 0  9996
2 30974  98.4000   0.0000 0000000   0.0000 225.0000 14.42576027    14
CTC2_L_00546001-07
1 30975U 22518SN  26037.47798611  .00000000  00000+0  00000-0 0  9992
2 30975  98.4000   0.0000 0000000   0.0000 270.0000 14.42576027    15
CTC2_L_00546001-08
1 30976U 26357SX  26037.47798611  .00000000  00000+0  00000-0 0  9998
2 30976  98.4000   0.0000 0000000   0.0000 315.0000 14.42576027    16
CTC2_L_00546002-01
1 30977U 26857JA  26037.47798611  .00000000  00000+0  00000-0 0  9994
2 30977  98.4000  12.0000 0000000   0.0000   6.0000 14.42576027    17
CTC2_L_00546002-02
1 30978U 22246WT  26037.47798611  .00000000  00000+0  00000-0 0  9993
2 30978  98.4000  12.0000 0000000   0.0000  51.0000 14.42576027    18
CTC2_L_00546002-03
1 30979U 23164FO  26037.47798611  .00000000  00000+0  00000-0 0  9994
2 30979  98.4000  12.0000 0000000   0.0000  96.0000 14.42576027    18
CTC2_L_00546002-04
1 30980U 22769BO  26037.47798611  .00000000  00000+0  00000-0 0  9996
2 30980  98.4000  12.0000 0000000   0.0000 141.0000 14.42576027    11
CTC2_L_00546002-05
1 30981U 22916MV  26037.47798611  .00000000  00000+0  00000-0 0  9991
2 30981  98.4000  12.0000 0000000   0.0000 186.0000 14.42576027    11
CTC2_L_00546002-06
1 30982U 22988WX  26037.47798611  .00000000  00000+0  00000-0 0  9991
2 30982  98.4000  12.0000 0000000   0.0000 231.0000 14.42576027    13
CTC2_L_00546002-07
1 30983U 24897SW  26037.47798611  .00000000  00000+0  00000-0 0  9993
2 30983  98.4000  12.0000 0000000   0.0000 276.0000 14.42576027    13
CTC2_L_00546002-08
1 30984U 25047UT  26037.47798611  .00000000  00000+0  00000-0 0  9992
2 30984  98.4000  12.0000 0000000   0.0000 321.0000 14.42576027    15
CTC2_L_00546003-01
1 30985U 22397PS  26037.47798611  .00000000  00000+0  00000-0 0  9998
2 30985  98.4000  24.0000 0000000   0.0000  12.0000 14.42576027    16
CTC2_L_00546003-02
1 30986U 23484OY  26037.47798611  .00000000  00000+0  00000-0 0  9997
2 30986  98.4000  24.0000 0000000   0.0000  57.0000 14.42576027    16
CTC2_L_00546003-03
1 30987U 24996CW  26037.47798611  .00000000  00000+0  00000-0 0  9997
2 30987  98.4000  24.0000 0000000   0.0000 102.0000 14.42576027    18
CTC2_L_00546003-04
1 30988U 25225YR  26037.47798611  .00000000  00000+0  00000-0 0  9994
2 30988  98.4000  24.0000 0000000   0.0000 147.0000 14.42576027    18
CTC2_L_00546003-05
1 30989U 26121W   26037.47798611  .00000000  00000+0  00000-0 0  9991
2 30989  98.4000  24.0000 0000000   0.0000 192.0000 14.42576027    19
CTC2_L_00546003-06
1 30990U 23166NP  26037.47798611  .00000000  00000+0  00000-0 0  9999
2 30990  98.4000  24.0000 0000000   0.0000 237.0000 14.42576027    11
CTC2_L_00546003-07
1 30991U 25233VF  26037.47798611  .00000000  00000+0  00000-0 0  9997
2 30991  98.4000  24.0000 0000000   0.0000 282.0000 14.42576027    12
CTC2_L_00546003-08
1 30992U 23612HT  26037.47798611  .00000000  00000+0  00000-0 0  9997
2 30992  98.4000  24.0000 0000000   0.0000 327.0000 14.42576027    13
CTC2_L_00546004-01
1 30993U 24977FQ  26037.47798611  .00000000  00000+0  00000-0 0  9993
2 30993  98.4000  36.0000 0000000   0.0000  18.0000 14.42576027    14
CTC2_L_00546004-02
1 30994U 24168GE  26037.47798611  .00000000  00000+0  00000-0 0  9996
2 30994  98.4000  36.0000 0000000   0.0000  63.0000 14.42576027    15
CTC2_L_00546004-03
1 30995U 22212ZL  26037.47798611  .00000000  00000+0  00000-0 0  9995
2 30995  98.4000  36.0000 0000000   0.0000 108.0000 14.42576027    16
CTC2_L_00546004-04
1 30996U 22565WN  26037.47798611  .00000000  00000+0  00000-0 0  9997
2 30996  98.4000  36.0000 0000000   0.0000 153.0000 14.42576027    17
CTC2_L_00546004-05
1 30997U 24971YA  26037.47798611  .00000000  00000+0  00000-0 0  9991
2 30997  98.4000  36.0000 0000000   0.0000 198.0000 14.42576027    17
CTC2_L_00546004-06
1 30998U 26997VB  26037.47798611  .00000000  00000+0  00000-0 0  9992
2 30998  98.4000  36.0000 0000000   0.0000 243.0000 14.42576027    19
CTC2_L_00546004-07
1 30999U 24086XG  26037.47798611  .00000000  00000+0  00000-0 0  9990
2 30999  98.4000  36.0000 0000000   0.0000 288.0000 14.42576027    19
CTC2_L_00546004-08
1 31000U 25967VF  26037.47798611  .00000000  00000+0  00000-0 0  9993
2 31000  98.4000  36.0000 0000000   0.0000 333.0000 14.42576027    14
CTC2_L_00546005-01
1 31001U 22821WO  26037.47798611  .00000000  00000+0  00000-0 0  9990
2 31001  98.4000  48.0000 0000000   0.0000  24.0000 14.42576027    15
CTC2_L_00546005-02
1 31002U 25124AL  26037.47798611  .00000000  00000+0  00000-0 0  9990
2 31002  98.4000  48.0000 0000000   0.0000  69.0000 14.42576027    15
CTC2_L_00546005-03
1 31003U 24420CE  26037.47798611  .00000000  00000+0  00000-0 0  9999
2 31003  98.4000  48.0000 0000000   0.0000 114.0000 14.42576027    17
CTC2_L_00546005-04
1 31004U 24083JX  26037.47798611  .00000000  00000+0  00000-0 0  9995
2 31004  98.4000  48.0000 0000000   0.0000 159.0000 14.42576027    17
CTC2_L_00546005-05
1 31005U 22974TI  26037.47798611  .00000000  00000+0  00000-0 0  9993
2 31005  98.4000  48.0000 0000000   0.0000 204.0000 14.42576027    19
CTC2_L_00546005-06
1 31006U 22915E   26037.47798611  .00000000  00000+0  00000-0 0  9999
2 31006  98.4000  48.0000 0000000   0.0000 249.0000 14.42576027    19
CTC2_L_00546005-07
1 31007U 24756SD  26037.47798611  .00000000  00000+0  00000-0 0  9995
2 31007  98.4000  48.0000 0000000   0.0000 294.0000 14.42576027    10
CTC2_L_00546005-08
1 31008U 24797NO  26037.47798611  .00000000  00000+0  00000-0 0  9991
2 31008  98.4000  48.0000 0000000   0.0000 339.0000 14.42576027    11
CTC2_L_00546006-01
1 31009U 22803TM  26037.47798611  .00000000  00000+0  00000-0 0  9998
2 31009  98.4000  60.0000 0000000   0.0000  30.0000 14.42576027    14
CTC2_L_00546006-02
1 31010U 24470SE  26037.47798611  .00000000  00000+0  00000-0 0  9992
2 31010  98.4000  60.0000 0000000   0.0000  75.0000 14.42576027    15
CTC2_L_00546006-03
1 31011U 25454JT  26037.47798611  .00000000  00000+0  00000-0 0  9996
2 31011  98.4000  60.0000 0000000   0.0000 120.0000 14.42576027    17
CTC2_L_00546006-04
1 31012U 23729OL  26037.47798611  .00000000  00000+0  00000-0 0  9990
2 31012  98.4000  60.0000 0000000   0.0000 165.0000 14.42576027    17
CTC2_L_00546006-05
1 31013U 24692IE  26037.47798611  .00000000  00000+0  00000-0 0  9991
2 31013  98.4000  60.0000 0000000   0.0000 210.0000 14.42576027    19
CTC2_L_00546006-06
1 31014U 25031LQ  26037.47798611  .00000000  00000+0  00000-0 0  9990
2 31014  98.4000  60.0000 0000000   0.0000 255.0000 14.42576027    19
CTC2_L_00546006-07
1 31015U 23901ET  26037.47798611  .00000000  00000+0  00000-0 0  9995
2 31015  98.4000  60.0000 0000000   0.0000 300.0000 14.42576027    11
CTC2_L_00546006-08
1 31016U 24961OA  26037.47798611  .00000000  00000+0  00000-0 0  9993
2 31016  98.4000  60.0000 0000000   0.0000 345.0000 14.42576027    11
CTC2_L_00546007-01
1 31017U 22114PS  26037.47798611  .00000000  00000+0  00000-0 0  9992
2 31017  98.4000  72.0000 0000000   0.0000  36.0000 14.42576027    12
CTC2_L_00546007-02
1 31018U 23203VT  26037.47798611  .00000000  00000+0  00000-0 0  9993
2 31018  98.4000  72.0000 0000000   0.0000  81.0000 14.42576027    13
CTC2_L_00546007-03
1 31019U 24039NZ  26037.47798611  .00000000  00000+0  00000-0 0  9992
2 31019  98.4000  72.0000 0000000   0.0000 126.0000 14.42576027    14
CTC2_L_00546007-04
1 31020U 25996SI  26037.47798611  .00000000  00000+0  00000-0 0  9997
2 31020  98.4000  72.0000 0000000   0.0000 171.0000 14.42576027    16
CTC2_L_00546007-05
1 31021U 23105TL  26037.47798611  .00000000  00000+0  00000-0 0  9998
2 31021  98.4000  72.0000 0000000   0.0000 216.0000 14.42576027    17
CTC2_L_00546007-06
1 31022U 25507KU  26037.47798611  .00000000  00000+0  00000-0 0  9997
2 31022  98.4000  72.0000 0000000   0.0000 261.0000 14.42576027    18
CTC2_L_00546007-07
1 31023U 26723MN  26037.47798611  .00000000  00000+0  00000-0 0  9999
2 31023  98.4000  72.0000 0000000   0.0000 306.0000 14.42576027    19
CTC2_L_00546007-08
1 31024U 24271WH  26037.47798611  .00000000  00000+0  00000-0 0  9996
2 31024  98.4000  72.0000 0000000   0.0000 351.0000 14.42576027    10
CTC2_L_00546008-01
1 31025U 26434GP  26037.47798611  .00000000  00000+0  00000-0 0  9990
2 31025  98.4000  84.0000 0000000   0.0000  42.0000 14.42576027    11
CTC2_L_00546008-02
1 31026U 23098VG  26037.47798611  .00000000  00000+0  00000-0 0  9994
2 31026  98.4000  84.0000 0000000   0.0000  87.0000 14.42576027    11
CTC2_L_00546008-03
1 31027U 22004AI  26037.47798611  .00000000  00000+0  00000-0 0  9991
2 31027  98.4000  84.0000 0000000   0.0000 132.0000 14.42576027    13
CTC2_L_00546008-04
1 31028U 23360CH  26037.47798611  .00000000  00000+0  00000-0 0  9998
2 31028  98.4000  84.0000 0000000   0.0000 177.0000 14.42576027    13
CTC2_L_00546008-05
1 31029U 26065BO  26037.47798611  .00000000  00000+0  00000-0 0  9994
2 31029  98.4000  84.0000 0000000   0.0000 222.0000 14.42576027    15
CTC2_L_00546008-06
1 31030U 25244AE  26037.47798611  .00000000  00000+0  00000-0 0  9994
2 31030  98.4000  84.0000 0000000   0.0000 267.0000 14.42576027    16
